STARLINK-37337          
1 68953U 26099C   26132.83335648 -.00006712  00000+0 -30488-4 0  9995
2 68953  53.1594 331.7341 0000706  77.9332 257.3952 15.80879971  2983
