{
  "norad_id": 68953,
  "name": "STARLINK-37337",
  "history": [
    {
      "epoch": "2026-05-12T20:00:01.999008Z",
      "apogee_km": 328.42504445424765,
      "perigee_km": 327.47680362178926,
      "latitude_deg": -19.706270626229532,
      "longitude_deg": 145.64760736667375,
      "height_km": 333.5273206001622,
      "semi_major_axis_km": 6706.087924038018,
      "eccentricity": 7.07e-05,
      "inclination_deg": 53.1594,
      "raan_deg": 331.7341,
      "arg_perigee_deg": 77.9332,
      "mean_anomaly_deg": 257.3952,
      "mean_motion_rev_day": 15.80879971
    }
  ]
}